GPS BIIR-2  (PRN 13)    
1 24876U 97035A   23061.62667335 -.00000039  00000+0  00000+0 0  9992
2 24876  55.5491 145.5968 0066001  52.0266 308.5982  2.00564281187830
GPS BIIR-4  (PRN 20)    
1 26360U 00025A   23062.49632522 -.00000016  00000+0  00000+0 0  9996
2 26360  54.2764  68.1862 0044516 196.5108 160.6608  2.00553386167168
GPS BIIR-8  (PRN 16)    
1 27663U 03005A   23062.54023516  .00000047  00000+0  00000+0 0  9990
2 27663  55.3482 262.7612 0132368  43.7018 320.3959  2.00576829147210
GPS BIIR-9  (PRN 21)    
1 27704U 03010A   23062.45143309 -.00000100  00000+0  00000+0 0  9996
2 27704  55.0954  12.8329 0249827 313.5099 205.7050  2.00567048146009
GPS BIIR-11 (PRN 19)    
1 28190U 04009A   23062.21564870 -.00000069  00000+0  00000+0 0  9993
2 28190  55.8303 323.8126 0089714 129.6339 158.3514  2.00571662138832
GPS BIIR-13 (PRN 02)    
1 28474U 04045A   23062.26393709 -.00000100  00000+0  00000+0 0  9990
2 28474  55.4204  13.0796 0201739 284.0252 248.9851  2.00562800134321
GPS BIIRM-1 (PRN 17)    
1 28874U 05038A   23062.14532243 -.00000064  00000+0  00000+0 0  9991
2 28874  55.8868 321.2596 0138660 278.6586 345.3973  2.00558127127728
GPS BIIRM-2 (PRN 31)    
1 29486U 06042A   23062.27232913 -.00000010  00000+0  00000+0 0  9993
2 29486  54.6946 198.9921 0105291  28.6161 243.5785  2.00504718120437
GPS BIIRM-3 (PRN 12)    
1 29601U 06052A   23061.84604871  .00000051  00000+0  00000+0 0  9995
2 29601  55.3635 261.7379 0087087  76.6071 284.3943  2.00566360119292
GPS BIIRM-4 (PRN 15)    
1 32260U 07047A   23062.14774176 -.00000025  00000+0  00000+0 0  9997
2 32260  53.3927 129.8174 0145375  67.3648 294.2224  2.00561970112701
GPS BIIRM-5 (PRN 29)    
1 32384U 07062A   23062.24461118 -.00000065  00000+0  00000+0 0  9995
2 32384  56.0136 322.0512 0020913 141.4351  58.2363  2.00575813111407
GPS BIIRM-6 (PRN 07)    
1 32711U 08012A   23062.06058252 -.00000011  00000+0  00000+0 0  9997
2 32711  54.4592 197.8765 0170383 233.2030 125.1831  2.00573276109646
GPS BIIRM-8 (PRN 05)    
1 35752U 09043A   23062.13890641 -.00000007  00000+0  00000+0 0  9999
2 35752  55.2794  75.1291 0055698  63.6259   5.2797  2.00569799 99257
GPS BIIF-1  (PRN 25)    
1 36585U 10022A   23062.43317934  .00000048  00000+0  00000+0 0  9999
2 36585  54.6554 257.0551 0109700  58.7562 342.7097  2.00552358 93490
GPS BIIF-2  (PRN 01)    
1 37753U 11036A   23062.56126926 -.00000091  00000+0  00000+0 0  9995
2 37753  56.7023  18.6316 0122749  53.1411 161.4697  2.00567088 85176
GPS BIIF-3  (PRN 24)    
1 38833U 12053A   23062.24765471 -.00000019  00000+0  00000+0 0  9994
2 38833  53.5171 192.7581 0135764  50.2092 310.9366  2.00564606 75331
GPS BIIF-4  (PRN 27)    
1 39166U 13023A   23062.10676929 -.00000057  00000+0  00000+0 0  9998
2 39166  55.5059 317.5318 0112577  39.5863 321.2789  2.00565130 71777
GPS BIIF-5  (PRN 30)    
1 39533U 14008A   23060.61273683  .00000001  00000+0  00000+0 0  9992
2 39533  53.6072 198.3598 0063052 210.3992 149.1974  2.00567887 65541
GPS BIIF-6  (PRN 06)    
1 39741U 14026A   23060.39077940 -.00000094  00000+0  00000+0 0  9999
2 39741  56.6584  18.2397 0030860 310.1358  49.5861  2.00570628 64393
GPS BIIF-7  (PRN 09)    
1 40105U 14045A   23062.47809193 -.00000024  00000+0  00000+0 0  9993
2 40105  54.7547 136.4578 0022384 115.1237 245.1575  2.00564789 61970
GPS BIIF-8  (PRN 03)    
1 40294U 14068A   23062.35008004 -.00000001  00000+0  00000+0 0  9991
2 40294  56.0227  77.7247 0043159  56.0570 304.4075  2.00559409 61084
GPS BIIF-9  (PRN 26)    
1 40534U 15013A   23062.48348262  .00000044  00000+0  00000+0 0  9992
2 40534  53.5547 253.9540 0077779  24.5692 335.8160  2.00566051 57722
GPS BIIF-10 (PRN 08)    
1 40730U 15033A   23062.14470316 -.00000054  00000+0  00000+0 0  9993
2 40730  54.9982 316.2341 0083139  11.4319 348.8064  2.00564928 55881
GPS BIIF-11 (PRN 10)    
1 41019U 15062A   23062.19892791 -.00000002  00000+0  00000+0 0  9999
2 41019  56.0084  77.5778 0086147 221.5314 137.8637  2.00562501 53728
GPS BIIF-12 (PRN 32)    
1 41328U 16007A   23062.28611123 -.00000027  00000+0  00000+0 0  9997
2 41328  54.9649 137.1992 0068676 232.6081 126.8116  2.00558637 51731
GPS BIII-1  (PRN 04)    
1 43873U 18109A   23062.43890208 -.00000026  00000+0  00000+0 0  9998
2 43873  55.1425 139.6688 0023592 192.3285 167.6785  2.00559955 30970
GPS BIII-2  (PRN 18)    
1 44506U 19056A   23062.32798637 -.00000093  00000+0  00000+0 0  9999
2 44506  55.7783  18.7683 0029987 186.2027 354.6537  2.00562370 25960
GPS BIII-3  (PRN 23)    
1 45854U 20041A   23062.37276848 -.00000003  00000+0  00000+0 0  9993
2 45854  55.7290  76.0363 0030262 187.0968 328.2401  2.00566755 19931
GPS BIII-4  (PRN 14)    
1 46826U 20078A   23061.44771515  .00000050  00000+0  00000+0 0  9992
2 46826  54.4101 259.6158 0027678 188.0368 355.4160  2.00564218 17384
GPS BIII-5  (PRN 11)    
1 48859U 21054A   23062.28996105 -.00000091  00000+0  00000+0 0  9998
2 48859  55.2908  20.6436 0008821 219.8553  35.0696  2.00559629 12648
GPS BIII-6  (PRN 28)    
1 55268U 23009A   23062.38276793 -.00000014  00000+0  00000+0 0  9992
2 55268  55.0992 195.6677 0007175 100.2205 263.2188  2.00567916  1141
